OMNI-L2                 
1 52771U 22057AR  26068.75199991  .00002095  00000+0  27610-3 0  9994
2 52771  97.4810 137.7671 0005273 294.5494  65.5170 14.81075230205674
KUIPER-00100            
1 65139U 25171H   26068.41535663  .00000944  00000+0  15281-3 0  9991
2 65139  51.9003 151.7659 0000711  64.8325 295.2711 14.79932266 32950
