[{"OBJECT_NAME":"OMNI-L2","OBJECT_ID":"2022-057AR","EPOCH":"2026-03-09T18:02:52.792224","MEAN_MOTION":14.8107523,"ECCENTRICITY":0.00052733,"INCLINATION":97.481,"RA_OF_ASC_NODE":137.7671,"ARG_OF_PERICENTER":294.5494,"MEAN_ANOMALY":65.517,"EPHEMERIS_TYPE":0,"CLASSIFICATION_TYPE":"U","NORAD_CAT_ID":52771,"ELEMENT_SET_NO":999,"REV_AT_EPOCH":20567,"BSTAR":0.00027609772,"MEAN_MOTION_DOT":2.095e-5,"MEAN_MOTION_DDOT":0},{"OBJECT_NAME":"KUIPER-00100","OBJECT_ID":"2025-171H","EPOCH":"2026-03-09T09:58:06.812832","MEAN_MOTION":14.79932266,"ECCENTRICITY":7.118e-5,"INCLINATION":51.9003,"RA_OF_ASC_NODE":151.7659,"ARG_OF_PERICENTER":64.8325,"MEAN_ANOMALY":295.2711,"EPHEMERIS_TYPE":0,"CLASSIFICATION_TYPE":"U","NORAD_CAT_ID":65139,"ELEMENT_SET_NO":999,"REV_AT_EPOCH":3295,"BSTAR":0.00015281348,"MEAN_MOTION_DOT":9.44e-6,"MEAN_MOTION_DDOT":0}]
